{
"type": "FeatureCollection",
"name": "Fire_Stations",
"crs": { "type": "name", "properties": { "name": "urn:ogc:def:crs:OGC:1.3:CRS84" } },
"features": [
{ "type": "Feature", "properties": { "OBJECTID": 1, "STATION": "27", "ADDRESS": "12449 N 32ND ST", "CITY": "PHX", "ZIP": "85032" }, "geometry": { "type": "Point", "coordinates": [ -112.012952962868994, 33.600319235298109 ] } },
{ "type": "Feature", "properties": { "OBJECTID": 2, "STATION": "35", "ADDRESS": "646 E PARADISE LN", "CITY": "PHX", "ZIP": "85022" }, "geometry": { "type": "Point", "coordinates": [ -112.065860055257502, 33.633208161897542 ] } },
{ "type": "Feature", "properties": { "OBJECTID": 3, "STATION": "45", "ADDRESS": "20030 N 26TH ST", "CITY": "PHX", "ZIP": "85050" }, "geometry": { "type": "Point", "coordinates": [ -112.026806872612951, 33.668602531231159 ] } },
{ "type": "Feature", "properties": { "OBJECTID": 4, "STATION": "36", "ADDRESS": "21602 N 9TH AVE", "CITY": "PHX", "ZIP": "85027" }, "geometry": { "type": "Point", "coordinates": [ -112.085311132543396, 33.68209756852773 ] } },
{ "type": "Feature", "properties": { "OBJECTID": 5, "STATION": "42", "ADDRESS": "3246 W GREENWAY RD", "CITY": "PHX", "ZIP": "85053" }, "geometry": { "type": "Point", "coordinates": [ -112.129078147586853, 33.625547452416036 ] } },
{ "type": "Feature", "properties": { "OBJECTID": 6, "STATION": "48", "ADDRESS": "5230 W HAPPY VALLEY RD", "CITY": "PHX", "ZIP": "85083" }, "geometry": { "type": "Point", "coordinates": [ -112.172930176637934, 33.712803091441138 ] } },
{ "type": "Feature", "properties": { "OBJECTID": 7, "STATION": "49", "ADDRESS": "3750 E DYNAMITE BLVD", "CITY": "PHX", "ZIP": "85331" }, "geometry": { "type": "Point", "coordinates": [ -111.996187968790352, 33.74136288610034 ] } },
{ "type": "Feature", "properties": { "OBJECTID": 8, "STATION": "30", "ADDRESS": "2701 W BELMONT AVE", "CITY": "PHX", "ZIP": "85051" }, "geometry": { "type": "Point", "coordinates": [ -112.117319748640256, 33.548955560873239 ] } },
{ "type": "Feature", "properties": { "OBJECTID": 9, "STATION": "18", "ADDRESS": "5019 N 23RD AVE", "CITY": "PHX", "ZIP": "85015" }, "geometry": { "type": "Point", "coordinates": [ -112.108203603258104, 33.510201573915026 ] } },
{ "type": "Feature", "properties": { "OBJECTID": 10, "STATION": "11", "ADDRESS": "2727 E ROOSEVELT ST", "CITY": "PHX", "ZIP": "85008" }, "geometry": { "type": "Point", "coordinates": [ -112.023022035972787, 33.458262769276665 ] } },
{ "type": "Feature", "properties": { "OBJECTID": 11, "STATION": "9", "ADDRESS": "330 E FAIRMOUNT AVE", "CITY": "PHX", "ZIP": "85012" }, "geometry": { "type": "Point", "coordinates": [ -112.068248848177674, 33.493008097083518 ] } },
{ "type": "Feature", "properties": { "OBJECTID": 12, "STATION": "37", "ADDRESS": "16602 N 40TH ST", "CITY": "PHX", "ZIP": "85032" }, "geometry": { "type": "Point", "coordinates": [ -111.996355988821676, 33.637426578070794 ] } },
{ "type": "Feature", "properties": { "OBJECTID": 13, "STATION": "52", "ADDRESS": "21650 N TATUM BLVD", "CITY": "PHX", "ZIP": "85050" }, "geometry": { "type": "Point", "coordinates": [ -111.976761734013536, 33.682801515395745 ] } },
{ "type": "Feature", "properties": { "OBJECTID": 14, "STATION": "41", "ADDRESS": "2501 W MORNINGSIDE DR", "CITY": "PHX", "ZIP": "85023" }, "geometry": { "type": "Point", "coordinates": [ -112.112720986543636, 33.648615653455018 ] } },
{ "type": "Feature", "properties": { "OBJECTID": 15, "STATION": "61", "ADDRESS": "1935 E INDIAN SCHOOL RD", "CITY": "PHX", "ZIP": "85016" }, "geometry": { "type": "Point", "coordinates": [ -112.040360264244129, 33.494365013248682 ] } },
{ "type": "Feature", "properties": { "OBJECTID": 16, "STATION": "25", "ADDRESS": "4010 N 63RD AVE", "CITY": "PHX", "ZIP": "85033" }, "geometry": { "type": "Point", "coordinates": [ -112.195308402841178, 33.493737706167238 ] } },
{ "type": "Feature", "properties": { "OBJECTID": 17, "STATION": "59", "ADDRESS": "1111 S 65TH AVE", "CITY": "PHX", "ZIP": "85043" }, "geometry": { "type": "Point", "coordinates": [ -112.197822264477864, 33.437824699412488 ] } },
{ "type": "Feature", "properties": { "OBJECTID": 18, "STATION": "26", "ADDRESS": "3301 W ROSE LN", "CITY": "PHX", "ZIP": "85017" }, "geometry": { "type": "Point", "coordinates": [ -112.130425461933754, 33.527455183492947 ] } },
{ "type": "Feature", "properties": { "OBJECTID": 19, "STATION": "33", "ADDRESS": "2409 W CACTUS RD", "CITY": "PHX", "ZIP": "85029" }, "geometry": { "type": "Point", "coordinates": [ -112.110802675847623, 33.596207927842592 ] } },
{ "type": "Feature", "properties": { "OBJECTID": 20, "STATION": "55", "ADDRESS": "26700 N 27TH AVE", "CITY": "PHX", "ZIP": "85085" }, "geometry": { "type": "Point", "coordinates": [ -112.117346599744735, 33.726337793856281 ] } },
{ "type": "Feature", "properties": { "OBJECTID": 21, "STATION": "1", "ADDRESS": "323 N 4TH AVE", "CITY": "PHX", "ZIP": "85003" }, "geometry": { "type": "Point", "coordinates": [ -112.078743695359975, 33.45242654408333 ] } },
{ "type": "Feature", "properties": { "OBJECTID": 22, "STATION": "19", "ADDRESS": "3635 E SKY HARBOR BLVD", "CITY": "PHX", "ZIP": "85034" }, "geometry": { "type": "Point", "coordinates": [ -112.005896556636927, 33.434322010956379 ] } },
{ "type": "Feature", "properties": { "OBJECTID": 23, "STATION": "12", "ADDRESS": "4247 N 32ND ST", "CITY": "PHX", "ZIP": "85018" }, "geometry": { "type": "Point", "coordinates": [ -112.012688488124638, 33.498463311757362 ] } },
{ "type": "Feature", "properties": { "OBJECTID": 24, "STATION": "60", "ADDRESS": "2405 W TOWNLEY AVE", "CITY": "PHX", "ZIP": "85021" }, "geometry": { "type": "Point", "coordinates": [ -112.110921839807986, 33.565458864503547 ] } },
{ "type": "Feature", "properties": { "OBJECTID": 25, "STATION": "31", "ADDRESS": "5730 E THUNDERBIRD RD", "CITY": "PHX", "ZIP": "85254" }, "geometry": { "type": "Point", "coordinates": [ -111.957334809016814, 33.611851062164476 ] } },
{ "type": "Feature", "properties": { "OBJECTID": 26, "STATION": "39", "ADDRESS": "2276 W SOUTHERN AVE", "CITY": "PHX", "ZIP": "85041" }, "geometry": { "type": "Point", "coordinates": [ -112.10748399206453, 33.392474060192136 ] } },
{ "type": "Feature", "properties": { "OBJECTID": 27, "STATION": "6", "ADDRESS": "368 W APACHE ST", "CITY": "PHX", "ZIP": "85003" }, "geometry": { "type": "Point", "coordinates": [ -112.080084107344888, 33.430276019385182 ] } },
{ "type": "Feature", "properties": { "OBJECTID": 28, "STATION": "4", "ADDRESS": "1601 N 3RD AVE", "CITY": "PHX", "ZIP": "85003" }, "geometry": { "type": "Point", "coordinates": [ -112.078037710960771, 33.466046177796152 ] } },
{ "type": "Feature", "properties": { "OBJECTID": 29, "STATION": "17", "ADDRESS": "1531 E MISSOURI AVE", "CITY": "PHX", "ZIP": "85014" }, "geometry": { "type": "Point", "coordinates": [ -112.048440178517893, 33.516300356546253 ] } },
{ "type": "Feature", "properties": { "OBJECTID": 30, "STATION": "21", "ADDRESS": "1212 S 27TH AVE", "CITY": "PHX", "ZIP": "85009" }, "geometry": { "type": "Point", "coordinates": [ -112.117494134416376, 33.436327276891909 ] } },
{ "type": "Feature", "properties": { "OBJECTID": 31, "STATION": "57", "ADDRESS": "1660 W DOBBINS RD", "CITY": "PHX", "ZIP": "85041" }, "geometry": { "type": "Point", "coordinates": [ -112.095316121962156, 33.363539126105422 ] } },
{ "type": "Feature", "properties": { "OBJECTID": 32, "STATION": "20", "ADDRESS": "726 W GLENDALE AVE", "CITY": "PHX", "ZIP": "85021" }, "geometry": { "type": "Point", "coordinates": [ -112.083427535600933, 33.538544588417793 ] } },
{ "type": "Feature", "properties": { "OBJECTID": 33, "STATION": "28", "ADDRESS": "7409 S 16TH ST", "CITY": "PHX", "ZIP": "85042" }, "geometry": { "type": "Point", "coordinates": [ -112.047146822651058, 33.379224931423451 ] } },
{ "type": "Feature", "properties": { "OBJECTID": 34, "STATION": "43", "ADDRESS": "4110 E CHANDLER BLVD", "CITY": "PHX", "ZIP": "85044" }, "geometry": { "type": "Point", "coordinates": [ -111.994713757976101, 33.305548017642067 ] } },
{ "type": "Feature", "properties": { "OBJECTID": 35, "STATION": "54", "ADDRESS": "9820 W CAMPBELL AVE", "CITY": "PHX", "ZIP": "85037" }, "geometry": { "type": "Point", "coordinates": [ -112.270767153312988, 33.501533885784987 ] } },
{ "type": "Feature", "properties": { "OBJECTID": 36, "STATION": "16", "ADDRESS": "1414 E MOHAVE ST", "CITY": "PHX", "ZIP": "85034" }, "geometry": { "type": "Point", "coordinates": [ -112.051403123882878, 33.431702302488368 ] } },
{ "type": "Feature", "properties": { "OBJECTID": 37, "STATION": "14", "ADDRESS": "1330 N 32ND AVE", "CITY": "PHX", "ZIP": "85009" }, "geometry": { "type": "Point", "coordinates": [ -112.127360713500821, 33.463876789153922 ] } },
{ "type": "Feature", "properties": { "OBJECTID": 38, "STATION": "15", "ADDRESS": "4730 N 43RD AVE", "CITY": "PHX", "ZIP": "85031" }, "geometry": { "type": "Point", "coordinates": [ -112.151851961521729, 33.506450815527295 ] } },
{ "type": "Feature", "properties": { "OBJECTID": 39, "STATION": "24", "ADDRESS": "2602 N 43RD AVE", "CITY": "PHX", "ZIP": "85035" }, "geometry": { "type": "Point", "coordinates": [ -112.151914895692499, 33.477190255804395 ] } },
{ "type": "Feature", "properties": { "OBJECTID": 40, "STATION": "40", "ADDRESS": "3838 N 83RD AVE", "CITY": "PHX", "ZIP": "85037" }, "geometry": { "type": "Point", "coordinates": [ -112.238295950294898, 33.491646349434859 ] } },
{ "type": "Feature", "properties": { "OBJECTID": 41, "STATION": "10", "ADDRESS": "2731 N 24TH DR", "CITY": "PHX", "ZIP": "85009" }, "geometry": { "type": "Point", "coordinates": [ -112.111185964054002, 33.479478148640283 ] } },
{ "type": "Feature", "properties": { "OBJECTID": 42, "STATION": "56", "ADDRESS": "3210 W CANOTIA PL", "CITY": "PHX", "ZIP": "85086" }, "geometry": { "type": "Point", "coordinates": [ -112.12915777355127, 33.801005174108383 ] } },
{ "type": "Feature", "properties": { "OBJECTID": 43, "STATION": "44", "ADDRESS": "7117 W MCDOWELL RD", "CITY": "PHX", "ZIP": "85043" }, "geometry": { "type": "Point", "coordinates": [ -112.212648576360777, 33.465439977872862 ] } },
{ "type": "Feature", "properties": { "OBJECTID": 44, "STATION": "7", "ADDRESS": "403 E HATCHER RD", "CITY": "PHX", "ZIP": "85020" }, "geometry": { "type": "Point", "coordinates": [ -112.068201633193368, 33.571246015735362 ] } },
{ "type": "Feature", "properties": { "OBJECTID": 45, "STATION": "62", "ADDRESS": "9348 W LOWER BUCKEYE RD", "CITY": "PHX", "ZIP": "85353" }, "geometry": { "type": "Point", "coordinates": [ -112.260724886673373, 33.421654117363786 ] } },
{ "type": "Feature", "properties": { "OBJECTID": 46, "STATION": "3", "ADDRESS": "1257 W PIERCE ST", "CITY": "PHX", "ZIP": "85007" }, "geometry": { "type": "Point", "coordinates": [ -112.090670967623637, 33.455829604323483 ] } },
{ "type": "Feature", "properties": { "OBJECTID": 47, "STATION": "8", "ADDRESS": "1025 E POLK ST", "CITY": "PHX", "ZIP": "85006" }, "geometry": { "type": "Point", "coordinates": [ -112.059487068048057, 33.452708638564872 ] } },
{ "type": "Feature", "properties": { "OBJECTID": 48, "STATION": "38", "ADDRESS": "5002 E WARNER RD", "CITY": "PHX", "ZIP": "85044" }, "geometry": { "type": "Point", "coordinates": [ -111.978335523440663, 33.332875881964853 ] } },
{ "type": "Feature", "properties": { "OBJECTID": 49, "STATION": "5", "ADDRESS": "1840 E CAMBRIDGE AVE", "CITY": "PHX", "ZIP": "85006" }, "geometry": { "type": "Point", "coordinates": [ -112.041623992547756, 33.477681736442037 ] } },
{ "type": "Feature", "properties": { "OBJECTID": 50, "STATION": "29", "ADDRESS": "4056 E WASHINGTON ST", "CITY": "PHX", "ZIP": "85034" }, "geometry": { "type": "Point", "coordinates": [ -111.99674502150728, 33.442876596072736 ] } },
{ "type": "Feature", "properties": { "OBJECTID": 51, "STATION": "13", "ADDRESS": "2838 N 47TH PL", "CITY": "PHX", "ZIP": "85008" }, "geometry": { "type": "Point", "coordinates": [ -111.978635239316262, 33.47946812214952 ] } },
{ "type": "Feature", "properties": { "OBJECTID": 52, "STATION": "50", "ADDRESS": "20255 N 35TH AVE", "CITY": "PHX", "ZIP": "85027" }, "geometry": { "type": "Point", "coordinates": [ -112.134237071934493, 33.670686519794977 ] } },
{ "type": "Feature", "properties": { "OBJECTID": 53, "STATION": "23", "ADDRESS": "4416 S 32ND ST", "CITY": "PHX", "ZIP": "85040" }, "geometry": { "type": "Point", "coordinates": [ -112.012819241194151, 33.406021733750819 ] } },
{ "type": "Feature", "properties": { "OBJECTID": 54, "STATION": "22", "ADDRESS": "230 E ROESER RD", "CITY": "PHX", "ZIP": "85040" }, "geometry": { "type": "Point", "coordinates": [ -112.070029066310397, 33.399812560776105 ] } },
{ "type": "Feature", "properties": { "OBJECTID": 55, "STATION": "46", "ADDRESS": "15402 S MARKETPLACE WAY", "CITY": "PHX", "ZIP": "85048" }, "geometry": { "type": "Point", "coordinates": [ -112.052340423704663, 33.306892990833724 ] } },
{ "type": "Feature", "properties": { "OBJECTID": 56, "STATION": "32", "ADDRESS": "7620 S 42ND PL", "CITY": "PHX", "ZIP": "85042" }, "geometry": { "type": "Point", "coordinates": [ -111.992598211588373, 33.377013637330379 ] } },
{ "type": "Feature", "properties": { "OBJECTID": 57, "STATION": "72", "ADDRESS": "33027 N CAVE CREEK RD", "CITY": "PHX", "ZIP": "85331" }, "geometry": { "type": "Point", "coordinates": [ -111.971583461112786, 33.784883655266086 ] } }
]
}
